[{"OBJECT_NAME":"TRANSPORTER-10 OBJECT AG","OBJECT_ID":"2024-043AG","EPOCH":"2026-03-09T22:12:45.387648","MEAN_MOTION":15.30759727,"ECCENTRICITY":0.00093005,"INCLINATION":97.5471,"RA_OF_ASC_NODE":205.7101,"ARG_OF_PERICENTER":226.5958,"MEAN_ANOMALY":133.4509,"EPHEMERIS_TYPE":0,"CLASSIFICATION_TYPE":"U","NORAD_CAT_ID":59128,"ELEMENT_SET_NO":999,"REV_AT_EPOCH":11192,"BSTAR":0.00032170115,"MEAN_MOTION_DOT":9.498e-5,"MEAN_MOTION_DDOT":0},{"OBJECT_NAME":"STARLINK-33626","OBJECT_ID":"2025-063G","EPOCH":"2026-03-09T22:53:47.397984","MEAN_MOTION":15.30183502,"ECCENTRICITY":0.00016811,"INCLINATION":53.1608,"RA_OF_ASC_NODE":48.8378,"ARG_OF_PERICENTER":109.3985,"MEAN_ANOMALY":250.7197,"EPHEMERIS_TYPE":0,"CLASSIFICATION_TYPE":"U","NORAD_CAT_ID":63369,"ELEMENT_SET_NO":999,"REV_AT_EPOCH":5478,"BSTAR":0.00055099422,"MEAN_MOTION_DOT":0.00015987,"MEAN_MOTION_DDOT":0}]
